COSMOS 2565             
1 54381U 22163A   26185.98261959 -.00000054  00000+0  15638-4 0  9992
2 54381  67.1494  64.0055 0006685 272.5097  87.5223 13.96679152183256
JIAOTONG VDES           
1 54588U 22164A   26186.01159177  .00000324  00000+0  10265-3 0  9994
2 54588  98.2414 204.6958 0008467 273.9533  86.0692 14.46082199188654
GAOFEN-5 01A            
1 54640U 22165A   26185.95803321  .00000525  00000+0  12495-3 0  9993
2 54640  98.2354 123.1028 0001327   5.4496 354.6717 14.57713834190006
ONEWEB-0527             
1 54642U 22166A   26185.58682377  .00000027  00000+0  32725-4 0  9997
2 54642  87.9240 240.5349 0002031  99.2931 260.8433 13.21827042173837
ONEWEB-0528             
1 54643U 22166B   26185.58765488  .00000057  00000+0  10722-3 0  9998
2 54643  87.9240 240.5372 0002031 104.0230 256.1129 13.21826067173848
ONEWEB-0539             
1 54644U 22166C   26185.85257488  .00000023  00000+0  23063-4 0  9991
2 54644  87.9249 240.4572 0001877  94.8606 265.2743 13.21827714173875
ONEWEB-0540             
1 54645U 22166D   26185.85944021 -.00000184  00000+0 -47776-3 0  9994
2 54645  87.9233 240.4848 0001978  94.1339 266.0021 13.21825783173864
ONEWEB-0542             
1 54646U 22166E   26185.86268939  .00000024  00000+0  26444-4 0  9994
2 54646  87.9252 240.4544 0001842  92.3873 267.7472 13.21825251173871
ONEWEB-0545             
1 54647U 22166F   26185.90306397 -.00000025  00000+0 -92828-4 0  9993
2 54647  87.9240 240.4567 0001648  82.2472 277.8849 13.21825554173844
ONEWEB-0580             
1 54648U 22166G   26185.57500610  .00000053  00000+0  96825-4 0  9991
2 54648  87.9240 240.5218 0001965  85.5545 274.5813 13.21823199173846
ONEWEB-0582             
1 54649U 22166H   26185.38998891  .00000075  00000+0  14908-3 0  9998
2 54649  87.9240 240.5509 0001830  85.8240 274.3103 13.21827975173796
ONEWEB-0583             
1 54650U 22166J   26185.85596145  .00000086  00000+0  17728-3 0  9993
2 54650  87.9236 240.4815 0001955  94.6519 265.4838 13.21825379173867
ONEWEB-0584             
1 54651U 22166K   26185.42195039  .00000049  00000+0  87662-4 0  9998
2 54651  87.9238 240.5531 0002044  94.6702 265.4665 13.21824150173796
ONEWEB-0585             
1 54652U 22166L   26185.59689568  .00000052  00000+0  94495-4 0  9998
2 54652  87.9242 240.5060 0002137 101.0482 259.0892 13.21827838173821
ONEWEB-0586             
1 54653U 22166M   26185.91315602  .00000000  00000+0 -31849-4 0  9998
2 54653  87.9241 240.4682 0001898  94.9952 265.1398 13.21825160173864
ONEWEB-0587             
1 54654U 22166N   26185.84755347 -.00000010  00000+0 -56313-4 0  9990
2 54654  87.9251 240.4566 0002316 103.4538 256.6854 13.21824937174010
ONEWEB-0589             
1 54655U 22166P   26185.90979174 -.00000078  00000+0 -22098-3 0  9990
2 54655  87.9236 240.4541 0001791  72.7960 287.3370 13.21825333173889
ONEWEB-0590             
1 54656U 22166Q   26185.85917473  .00000083  00000+0  17041-3 0  9995
2 54656  87.9242 240.4560 0002397  89.6426 270.4983 13.21825486173865
ONEWEB-0591             
1 54657U 22166R   26185.56830495  .00000057  00000+0  10617-3 0  9995
2 54657  87.9238 240.5273 0002111  95.1689 264.9685 13.21827490173853
ONEWEB-0592             
1 54658U 22166S   26185.42025631  .00000036  00000+0  56766-4 0  9992
2 54658  87.9251 240.5367 0002028  97.0048 263.1317 13.21823841173714
ONEWEB-0593             
1 54659U 22166T   26185.59354139  .00000015  00000+0  37542-5 0  9998
2 54659  87.9241 240.5124 0001847  97.2657 262.8686 13.21826104173845
ONEWEB-0594             
1 54660U 22166U   26185.91649563  .00000098  00000+0  20663-3 0  9999
2 54660  87.9239 240.4643 0002118 101.8785 258.2587 13.21825111173908
ONEWEB-0595             
1 54661U 22166V   26185.43878711  .00000009  00000+0 -10494-4 0  9991
2 54661  87.9248 240.5413 0002253 100.6811 259.4577 13.21825537173816
ONEWEB-0596             
1 54662U 22166W   26185.41353790  .00000095  00000+0  19860-3 0  9994
2 54662  87.9245 240.5569 0002183  98.1671 261.9711 13.21827969173812
ONEWEB-0597             
1 54663U 22166X   26185.84921286  .00000042  00000+0  70662-4 0  9993
2 54663  87.9238 240.4728 0001945  94.7146 265.4210 13.21827837173878
ONEWEB-0600             
1 54664U 22166Y   26185.45224827 -.00000073  00000+0 -20809-3 0  9991
2 54664  87.9241 240.5436 0001818 101.9521 258.1817 13.21825656173797
ONEWEB-0601             
1 54665U 22166Z   26185.44382185 -.00000020  00000+0 -80546-4 0  9990
2 54665  87.9241 240.5605 0001808  89.6985 270.4356 13.21824986173982
ONEWEB-0602             
1 54666U 22166AA  26185.86350918  .00000006  00000+0 -16442-4 0  9993
2 54666  87.9240 240.4833 0001840 100.6411 259.4930 13.21827773173889
ONEWEB-0603             
1 54667U 22166AB  26185.41522485  .00000162  00000+0  36013-3 0  9992
2 54667  87.9251 240.5314 0001967  96.0641 264.0717 13.21828235173755
